start=new Date('2022-05-12T00:00:00.000Z').valueOf();
sats=[{"NORAD_CAT_ID":"45673","CLASSIFICATION_TYPE":"U","MEAN_MOTION":"15.06388284","MEAN_ANOMALY":"298.8912","PERIAPSIS":"546.009","MEAN_ELEMENT_THEORY":"SGP4","REV_AT_EPOCH":"10802","RCS_SIZE":"LARGE","RA_OF_ASC_NODE":"222.5485","ECCENTRICITY":"0.00017910","REF_FRAME":"TEME","EPHEMERIS_TYPE":"0","DECAY_DATE":null,"MEAN_MOTION_DDOT":"0.0000000000000","TIME_SYSTEM":"UTC","OBJECT_NAME":"STARLINK-1456","GP_ID":"203306473","APOAPSIS":"548.490","OBJECT_ID":"2020-035S","TLE_LINE2":"2 45673  53.0537 222.5485 0001791  61.2257 298.8912 15.06388284108024","CENTER_NAME":"EARTH","MEAN_MOTION_DOT":"0.00000465","OBJECT_TYPE":"PAYLOAD","PERIOD":"95.593","COUNTRY_CODE":"US","SEMIMAJOR_AXIS":"6925.384","LAUNCH_DATE":"2020-06-04","FILE":"3441154","BSTAR":"0.00005014900000","EPOCH":"2022-05-11T16:08:16.650816","ARG_OF_PERICENTER":"61.2257","INCLINATION":"53.0537","TLE_LINE1":"1 45673U 20035S   22131.67241494  .00000465  00000-0  50149-4 0  9999","SITE":"AFETR","ELEMENT_SET_NO":"999"},{"GP_ID":"203307223","APOAPSIS":"548.287","OBJECT_NAME":"STARLINK-1457","OBJECT_TYPE":"PAYLOAD","PERIOD":"95.592","MEAN_MOTION_DOT":"-0.00001062","TLE_LINE2":"2 45674  53.0554 222.2302 0001532  74.7844 285.3314 15.06396085108006","CENTER_NAME":"EARTH","OBJECT_ID":"2020-035T","EPOCH":"2022-05-11T17:54:25.694208","ARG_OF_PERICENTER":"74.7844","BSTAR":"-0.00005241500000","SEMIMAJOR_AXIS":"6925.361","COUNTRY_CODE":"US","LAUNCH_DATE":"2020-06-04","FILE":"3441154","ELEMENT_SET_NO":"999","INCLINATION":"53.0554","TLE_LINE1":"1 45674U 20035T   22131.74613072 -.00001062  00000-0 -52415-4 0  9997","SITE":"AFETR","MEAN_ANOMALY":"285.3314","MEAN_MOTION":"15.06396085","CLASSIFICATION_TYPE":"U","NORAD_CAT_ID":"45674","RCS_SIZE":"LARGE","REV_AT_EPOCH":"10800","RA_OF_ASC_NODE":"222.2302","MEAN_ELEMENT_THEORY":"SGP4","PERIAPSIS":"546.165","DECAY_DATE":null,"EPHEMERIS_TYPE":"0","ECCENTRICITY":"0.00015320","REF_FRAME":"TEME","MEAN_MOTION_DDOT":"0.0000000000000","TIME_SYSTEM":"UTC"},{"PERIAPSIS":"545.849","MEAN_ELEMENT_THEORY":"SGP4","RA_OF_ASC_NODE":"223.1709","RCS_SIZE":"LARGE","REV_AT_EPOCH":"10796","MEAN_MOTION":"15.06388235","MEAN_ANOMALY":"318.6031","CLASSIFICATION_TYPE":"U","NORAD_CAT_ID":"45675","TIME_SYSTEM":"UTC","MEAN_MOTION_DDOT":"0.0000000000000","REF_FRAME":"TEME","ECCENTRICITY":"0.00020220","DECAY_DATE":null,"EPHEMERIS_TYPE":"0","MEAN_MOTION_DOT":"-0.00000534","OBJECT_ID":"2020-035U","TLE_LINE2":"2 45675  53.0559 223.1709 0002022  41.5111 318.6031 15.06388235107965","CENTER_NAME":"EARTH","PERIOD":"95.593","OBJECT_TYPE":"PAYLOAD","OBJECT_NAME":"STARLINK-1458","APOAPSIS":"548.650","GP_ID":"203273940","SITE":"AFETR","INCLINATION":"53.0559","TLE_LINE1":"1 45675U 20035U   22131.53603759 -.00000534  00000-0 -16922-4 0  9992","ELEMENT_SET_NO":"999","FILE":"3440740","LAUNCH_DATE":"2020-06-04","SEMIMAJOR_AXIS":"6925.385","COUNTRY_CODE":"US","EPOCH":"2022-05-11T12:51:53.647776","ARG_OF_PERICENTER":"41.5111","BSTAR":"-0.00001692200000"},{"TIME_SYSTEM":"UTC","MEAN_MOTION_DDOT":"0.0000000000000","REF_FRAME":"TEME","ECCENTRICITY":"0.00018590","EPHEMERIS_TYPE":"0","DECAY_DATE":null,"MEAN_ELEMENT_THEORY":"SGP4","PERIAPSIS":"545.961","RA_OF_ASC_NODE":"223.6131","REV_AT_EPOCH":"10794","RCS_SIZE":"LARGE","CLASSIFICATION_TYPE":"U","NORAD_CAT_ID":"45676","MEAN_ANOMALY":"306.7008","MEAN_MOTION":"15.06388706","SITE":"AFETR","TLE_LINE1":"1 45676U 20035V   22131.44020115 -.00001291  00000-0 -67829-4 0  9995","INCLINATION":"53.0566","ELEMENT_SET_NO":"999","FILE":"3440740","LAUNCH_DATE":"2020-06-04","COUNTRY_CODE":"US","SEMIMAJOR_AXIS":"6925.383","BSTAR":"-0.00006782900000","EPOCH":"2022-05-11T10:33:53.379360","ARG_OF_PERICENTER":"53.4152","TLE_LINE2":"2 45676  53.0566 223.6131 0001859  53.4152 306.7008 15.06388706107945","CENTER_NAME":"EARTH","OBJECT_ID":"2020-035V","MEAN_MOTION_DOT":"-0.00001291","PERIOD":"95.593","OBJECT_TYPE":"PAYLOAD","OBJECT_NAME":"STARLINK-1460","APOAPSIS":"548.536","GP_ID":"203274679"},{"MEAN_MOTION_DDOT":"0.0000000000000","TIME_SYSTEM":"UTC","EPHEMERIS_TYPE":"0","DECAY_DATE":null,"ECCENTRICITY":"0.00018540","REF_FRAME":"TEME","REV_AT_EPOCH":"10802","RCS_SIZE":"LARGE","RA_OF_ASC_NODE":"222.3606","MEAN_ELEMENT_THEORY":"SGP4","PERIAPSIS":"545.946","CLASSIFICATION_TYPE":"U","NORAD_CAT_ID":"45677","MEAN_MOTION":"15.06394803","MEAN_ANOMALY":"307.8013","ELEMENT_SET_NO":"999","INCLINATION":"53.0535","TLE_LINE1":"1 45677U 20035W   22131.71664186 -.00001525  00000-0 -83521-4 0  9995","SITE":"AFETR","BSTAR":"-0.00008352100000","ARG_OF_PERICENTER":"52.3144","EPOCH":"2022-05-11T17:11:57.856704","COUNTRY_CODE":"US","SEMIMAJOR_AXIS":"6925.364","LAUNCH_DATE":"2020-06-04","FILE":"3441154","OBJECT_TYPE":"PAYLOAD","PERIOD":"95.592","CENTER_NAME":"EARTH","TLE_LINE2":"2 45677  53.0535 222.3606 0001854  52.3144 307.8013 15.06394803108022","OBJECT_ID":"2020-035W","MEAN_MOTION_DOT":"-0.00001525","GP_ID":"203306974","APOAPSIS":"548.513","OBJECT_NAME":"STARLINK-1392"},{"BSTAR":"-0.00009555500000","ARG_OF_PERICENTER":"53.1716","EPOCH":"2022-05-11T17:02:40.720128","COUNTRY_CODE":"US","SEMIMAJOR_AXIS":"6925.352","FILE":"3441154","LAUNCH_DATE":"2020-06-04","ELEMENT_SET_NO":"999","INCLINATION":"53.0542","TLE_LINE1":"1 45678U 20035X   22131.71019352 -.00001705  00000-0 -95555-4 0  9995","SITE":"AFETR","GP_ID":"203306723","APOAPSIS":"548.431","OBJECT_NAME":"STARLINK-1393","OBJECT_TYPE":"PAYLOAD","PERIOD":"95.592","TLE_LINE2":"2 45678  53.0542 212.3790 0001753  53.1716 306.9434 15.06398992108149","OBJECT_ID":"2020-035X","CENTER_NAME":"EARTH","MEAN_MOTION_DOT":"-0.00001705","EPHEMERIS_TYPE":"0","DECAY_DATE":null,"ECCENTRICITY":"0.00017530","REF_FRAME":"TEME","MEAN_MOTION_DDOT":"0.0000000000000","TIME_SYSTEM":"UTC","NORAD_CAT_ID":"45678","CLASSIFICATION_TYPE":"U","MEAN_MOTION":"15.06398992","MEAN_ANOMALY":"306.9434","REV_AT_EPOCH":"10814","RCS_SIZE":"LARGE","RA_OF_ASC_NODE":"212.3790","MEAN_ELEMENT_THEORY":"SGP4","PERIAPSIS":"546.003"},{"OBJECT_NAME":"STARLINK-1394","APOAPSIS":"548.283","GP_ID":"203307975","MEAN_MOTION_DOT":"-0.00001702","CENTER_NAME":"EARTH","TLE_LINE2":"2 45679  53.0551 212.3878 0001499  67.6385 292.4763 15.06389841108165","OBJECT_ID":"2020-035Y","PERIOD":"95.593","OBJECT_TYPE":"PAYLOAD","LAUNCH_DATE":"2020-06-04","FILE":"3441154","SEMIMAJOR_AXIS":"6925.380","COUNTRY_CODE":"US","ARG_OF_PERICENTER":"67.6385","EPOCH":"2022-05-11T17:07:59.380608","BSTAR":"-0.00009542500000","SITE":"AFETR","TLE_LINE1":"1 45679U 20035Y   22131.71388172 -.00001702  00000-0 -95425-4 0  9998","INCLINATION":"53.0551","ELEMENT_SET_NO":"999","MEAN_MOTION":"15.06389841","MEAN_ANOMALY":"292.4763","CLASSIFICATION_TYPE":"U","NORAD_CAT_ID":"45679","MEAN_ELEMENT_THEORY":"SGP4","PERIAPSIS":"546.207","RA_OF_ASC_NODE":"212.3878","RCS_SIZE":"LARGE","REV_AT_EPOCH":"10816","REF_FRAME":"TEME","ECCENTRICITY":"0.00014990","DECAY_DATE":null,"EPHEMERIS_TYPE":"0","TIME_SYSTEM":"UTC","MEAN_MOTION_DDOT":"0.0000000000000"},{"MEAN_MOTION_DDOT":"0.0000000000000","TIME_SYSTEM":"UTC","EPHEMERIS_TYPE":"0","DECAY_DATE":null,"ECCENTRICITY":"0.00016220","REF_FRAME":"TEME","REV_AT_EPOCH":"10813","RCS_SIZE":"LARGE","RA_OF_ASC_NODE":"212.9473","PERIAPSIS":"546.125","MEAN_ELEMENT_THEORY":"SGP4","NORAD_CAT_ID":"45680","CLASSIFICATION_TYPE":"U","MEAN_ANOMALY":"306.0252","MEAN_MOTION":"15.06388744","ELEMENT_SET_NO":"999","INCLINATION":"53.0549","TLE_LINE1":"1 45680U 20035Z   22131.58856053 -.00001605  00000-0 -88865-4 0  9995","SITE":"AFETR","BSTAR":"-0.00008886500000","EPOCH":"2022-05-11T14:07:31.629792","ARG_OF_PERICENTER":"54.0887","COUNTRY_CODE":"US","SEMIMAJOR_AXIS":"6925.383","LAUNCH_DATE":"2020-06-04","FILE":"3441154","OBJECT_TYPE":"PAYLOAD","PERIOD":"95.593","CENTER_NAME":"EARTH","TLE_LINE2":"2 45680  53.0549 212.9473 0001622  54.0887 306.0252 15.06388744108139","OBJECT_ID":"2020-035Z","MEAN_MOTION_DOT":"-0.00001605","GP_ID":"203307719","APOAPSIS":"548.371","OBJECT_NAME":"STARLINK-1395"},{"EPHEMERIS_TYPE":"0","DECAY_DATE":null,"REF_FRAME":"TEME","ECCENTRICITY":"0.00015640","TIME_SYSTEM":"UTC","MEAN_MOTION_DDOT":"0.0000000000000","CLASSIFICATION_TYPE":"U","NORAD_CAT_ID":"45681","MEAN_MOTION":"15.06385616","MEAN_ANOMALY":"300.7054","RA_OF_ASC_NODE":"212.3596","REV_AT_EPOCH":"10816","RCS_SIZE":"LARGE","PERIAPSIS":"546.175","MEAN_ELEMENT_THEORY":"SGP4","BSTAR":"-0.00011548000000","ARG_OF_PERICENTER":"59.4089","EPOCH":"2022-05-11T17:13:17.602176","FILE":"3441154","LAUNCH_DATE":"2020-06-04","COUNTRY_CODE":"US","SEMIMAJOR_AXIS":"6925.393","ELEMENT_SET_NO":"999","SITE":"AFETR","INCLINATION":"53.0560","TLE_LINE1":"1 45681U 20035AA  22131.71756484 -.00002000  00000-0 -11548-3 0  9991","APOAPSIS":"548.341","GP_ID":"203306474","OBJECT_NAME":"STARLINK-1396","PERIOD":"95.593","OBJECT_TYPE":"PAYLOAD","CENTER_NAME":"EARTH","TLE_LINE2":"2 45681  53.0560 212.3596 0001564  59.4089 300.7054 15.06385616108160","OBJECT_ID":"2020-035AA","MEAN_MOTION_DOT":"-0.00002000"},{"PERIOD":"95.593","OBJECT_TYPE":"PAYLOAD","TLE_LINE2":"2 45682  53.0536 212.3109 0001849  43.7832 316.3303 15.06392854108153","CENTER_NAME":"EARTH","OBJECT_ID":"2020-035AB","MEAN_MOTION_DOT":"0.00000079","APOAPSIS":"548.516","GP_ID":"203307224","OBJECT_NAME":"STARLINK-1397","ELEMENT_SET_NO":"999","SITE":"AFETR","INCLINATION":"53.0536","TLE_LINE1":"1 45682U 20035AB  22131.72493304  .00000079  00000-0  24230-4 0  9997","BSTAR":"0.00002423000000","ARG_OF_PERICENTER":"43.7832","EPOCH":"2022-05-11T17:23:54.214656","LAUNCH_DATE":"2020-06-04","FILE":"3441154","COUNTRY_CODE":"US","SEMIMAJOR_AXIS":"6925.370","RA_OF_ASC_NODE":"212.3109","REV_AT_EPOCH":"10815","RCS_SIZE":"LARGE","MEAN_ELEMENT_THEORY":"SGP4","PERIAPSIS":"545.955","CLASSIFICATION_TYPE":"U","NORAD_CAT_ID":"45682","MEAN_ANOMALY":"316.3303","MEAN_MOTION":"15.06392854","TIME_SYSTEM":"UTC","MEAN_MOTION_DDOT":"0.0000000000000","EPHEMERIS_TYPE":"0","DECAY_DATE":null,"REF_FRAME":"TEME","ECCENTRICITY":"0.00018490"}];
